CSS (TIANHE-1)
1 48274U 21035A 22118.83995370 .00025546 00000-0 30415-3 0 9992
2 48274 41.4696 158.9772 0012189 238.7541 100.0758 15.60429597 57053
